FLOCK 2K-36             
1 42876U 17042BD  17333.39082889  .00006782  00000-0  20201-3 0  9996
2 42876  96.9948 235.1458 0014716 101.9709 258.3186 15.34884699 20976
FLOCK 2K-35             
1 42877U 17042BE  17333.19672139  .00009834  00000-0  29143-3 0  9993
2 42877  96.9945 234.9566 0014540 102.1149 258.1725 15.34932247 20944
FLOCK 2K-34             
1 42878U 17042BF  17333.51974761  .00004269  00000-0  12798-3 0  9991
2 42878  96.9946 235.2650 0014659 101.9632 258.3256 15.34889117 20992
FLOCK 2K-33             
1 42879U 17042BG  17333.19081930  .00004074  00000-0  12220-3 0  9997
2 42879  96.9944 234.9600 0014712 102.6741 257.6149 15.34891607 20946
FLOCK 2K-28             
1 42880U 17042BH  17333.62131746  .00002727  00000-0  85372-4 0  9990
2 42880  96.9949 235.2889 0014909 101.6828 258.6090 15.33813071 21001
LEMUR-2-ARTFISCHER      
1 42881U 17042BJ  17333.20904978  .00003293  00000-0  10068-3 0  9998
2 42881  96.9973 234.9862 0015411 103.9287 256.3672 15.34413647 20937
FLOCK 2K-27             
1 42882U 17042BK  17333.18945270  .00006191  00000-0  18491-3 0  9994
2 42882  96.9947 234.9671 0014775 102.8665 257.4230 15.34828856 20942
FLOCK 2K-26             
1 42883U 17042BL  17333.31694715  .00002946  00000-0  89192-4 0  9996
2 42883  96.9945 235.0912 0014714 101.0034 259.2866 15.34813674 20964
FLOCK 2K-25             
1 42884U 17042BM  17333.19240127  .00003974  00000-0  11933-3 0  9996
2 42884  96.9943 234.9557 0014671 102.5014 257.7873 15.34873290 20941
FLOCK 2K-20             
1 42885U 17042BN  17333.51112657  .00002740  00000-0  83068-4 0  9998
2 42885  96.9947 235.2813 0014784 100.2718 260.0194 15.34823932 20992
FLOCK 2K-19             
1 42886U 17042BP  17333.57932421  .00002944  00000-0  89108-4 0  9991
2 42886  96.9950 235.3407 0014777 100.5217 259.7693 15.34819743 21003
FLOCK 2K-18             
1 42887U 17042BQ  17333.30663578  .00002723  00000-0  82560-4 0  9997
2 42887  96.9946 235.1041 0015150 100.4982 259.7970 15.34829844 20960
FLOCK 2K-17             
1 42888U 17042BR  17333.31107242  .00002720  00000-0  82502-4 0  9993
2 42888  96.9940 235.0919 0015019  99.7217 260.5725 15.34812451 20967
FLOCK 2K-16             
1 42889U 17042BS  17333.50803335  .00003791  00000-0  11394-3 0  9990
2 42889  96.9945 235.2855 0014688  99.0159 261.2748 15.34875954 20996
FLOCK 2K-15             
1 42890U 17042BT  17333.63110871  .00002879  00000-0  87093-4 0  9998
2 42890  96.9952 235.4242 0015060  99.2269 261.0680 15.34851954 21018
FLOCK 2K-13             
1 42891U 17042BU  17333.18351899  .00005944  00000-0  17738-3 0  9990
2 42891  96.9943 234.9719 0015010  98.2918 262.0029 15.34868956 20946
FLOCK 2K-14             
1 42892U 17042BV  17333.30799449  .00002643  00000-0  80106-4 0  9995
2 42892  96.9942 235.0965 0015110  99.2223 261.0731 15.34866057 20963
FLOCK 2K-12             
1 42893U 17042BW  17333.62818621  .00003175  00000-0  95872-4 0  9992
2 42893  96.9950 235.4229 0015088  99.4644 260.8306 15.34841829 21015
FLOCK 2K-11             
1 42894U 17042BX  17333.30958591  .00002703  00000-0  81896-4 0  9996
2 42894  96.9946 235.1045 0015098  97.0299 263.2663 15.34852726 20969
FLOCK 2K-10             
1 42895U 17042BY  17333.62952687  .00003284  00000-0  98945-4 0  9990
2 42895  96.9945 235.4123 0015194  97.9097 262.3872 15.34879913 21017
FLOCK 2K-09             
1 42896U 17042BZ  17333.62662912  .00003051  00000-0  92230-4 0  9993
2 42896  96.9950 235.4230 0014955  97.4217 262.8727 15.34832343 21184
FLOCK 2K-06             
1 42897U 17042CA  17332.68716663  .00005233  00000-0  15647-3 0  9992
2 42897  96.9944 234.4469 0013057 112.0377 248.2256 15.34892358 20865
SILU-1 (SILKROAD 1)     
1 42903U 17021F   17333.58178184  .00020452  00000-0  21593-3 0  9994
2 42903  42.7793  89.7845 0009103 334.2151  96.6153 15.63753880 18606
FLOCK 3M-1              
1 42995U 17068J   17333.48538332  .00001218  00000-0  62873-4 0  9996
2 42995  97.3432  86.8388 0019194 123.3919 236.9155 15.18022176  4336
FLOCK 3M-3              
1 42996U 17068K   17333.28464206  .00001228  00000-0  63097-4 0  9993
2 42996  97.3388  86.6326 0018523 124.6112 235.6872 15.18181919  4301
FLOCK 3M-4              
1 42997U 17068L   17333.54680512  .00001099  00000-0  56681-4 0  9990
2 42997  97.3600  86.9796 0018288 124.8095 235.4863 15.18257397  4349
FLOCK 3M-2              
1 42998U 17068M   17333.47528666  .00001391  00000-0  70351-4 0  9999
2 42998  97.3501  86.8804 0016569 120.8926 239.3941 15.18562383  4331
ECAMSAT                 
1 43019U 98067NG  17333.28559624  .00005856  00000-0  93049-4 0  9998
2 43019  51.6398 295.2416 0005664 141.2249 218.9150 15.54895941 87422
ASTERIA                 
1 43020U 98067NH  17333.34996791  .00012989  00000-0  19706-3 0  9999
2 43020  51.6401 294.9219 0002995 129.9845 230.1409 15.54964306  1358
DELLINGR (RBLE)         
1 43021U 98067NJ  17333.37407245  .00008839  00000-0  13698-3 0  9997
2 43021  51.6439 294.7983 0003388 130.2214   2.7084 15.54855325  1350
TECHEDSAT 6             
1 43026U 98067NK  17333.28251955  .00046880  00000-0  66419-3 0  9994
2 43026  51.6399 295.2219 0002746 112.3708 247.7574 15.55994840  1244
OSIRIS-3U               
1 43027U 98067NL  17332.44884135  .00022562  00000-0  33187-3 0  9991
2 43027  51.6400 299.4044 0004635 107.7915 252.3582 15.55352647  1094
